start=new Date('2022-03-21T00:00:00.000Z').valueOf();
sats=[{"CENTER_NAME":"EARTH","ELEMENT_SET_NO":"999","EPHEMERIS_TYPE":"0","OBJECT_ID":"2021-125N","TLE_LINE2":"2 50168  53.2176 277.4585 0001409  60.8664 290.0421 15.13308209 14632","FILE":"3367446","ECCENTRICITY":"0.00014090","OBJECT_NAME":"STARLINK-3296","DECAY_DATE":null,"MEAN_ANOMALY":"290.0421","INCLINATION":"53.2176","CLASSIFICATION_TYPE":"U","ARG_OF_PERICENTER":"60.8664","PERIAPSIS":"525.149","TLE_LINE1":"1 50168U 21125N   22079.91668981 -.00664887  00000-0 -39416-1 0  9994","APOAPSIS":"527.094","MEAN_MOTION_DDOT":"0.0000000000000","MEAN_MOTION":"15.13308209","NORAD_CAT_ID":"50168","OBJECT_TYPE":"PAYLOAD","BSTAR":"-0.03941600000000","SEMIMAJOR_AXIS":"6904.256","COUNTRY_CODE":"US","REV_AT_EPOCH":"1463","MEAN_ELEMENT_THEORY":"SGP4","RA_OF_ASC_NODE":"277.4585","REF_FRAME":"TEME","LAUNCH_DATE":"2021-12-18","SITE":"AFWTR","TIME_SYSTEM":"UTC","GP_ID":"199245538","RCS_SIZE":"LARGE","EPOCH":"2022-03-20T22:00:01.999584","MEAN_MOTION_DOT":"-0.00664887","PERIOD":"95.156"},{"APOAPSIS":"524.709","TLE_LINE1":"1 50169U 21125P   22079.91668981 -.00665017  00000-0 -38408-1 0  9991","PERIAPSIS":"521.934","ARG_OF_PERICENTER":"37.6605","CLASSIFICATION_TYPE":"U","BSTAR":"-0.03840800000000","OBJECT_TYPE":"PAYLOAD","MEAN_MOTION":"15.14229196","NORAD_CAT_ID":"50169","MEAN_MOTION_DDOT":"0.0000000000000","EPHEMERIS_TYPE":"0","OBJECT_ID":"2021-125P","ELEMENT_SET_NO":"999","CENTER_NAME":"EARTH","MEAN_ANOMALY":"101.5700","INCLINATION":"53.2175","DECAY_DATE":null,"OBJECT_NAME":"STARLINK-3301","FILE":"3367488","ECCENTRICITY":"0.00020100","TLE_LINE2":"2 50169  53.2175 277.4594 0002010  37.6605 101.5700 15.14229196  3652","GP_ID":"199268474","TIME_SYSTEM":"UTC","SITE":"AFWTR","LAUNCH_DATE":"2021-12-18","PERIOD":"95.098","EPOCH":"2022-03-20T22:00:01.999584","MEAN_MOTION_DOT":"-0.00665017","RCS_SIZE":"LARGE","SEMIMAJOR_AXIS":"6901.457","REF_FRAME":"TEME","RA_OF_ASC_NODE":"277.4594","MEAN_ELEMENT_THEORY":"SGP4","REV_AT_EPOCH":"365","COUNTRY_CODE":"US"},{"EPHEMERIS_TYPE":"0","OBJECT_ID":"2021-125Q","ELEMENT_SET_NO":"999","CENTER_NAME":"EARTH","MEAN_ANOMALY":"342.5805","INCLINATION":"53.2176","DECAY_DATE":null,"OBJECT_NAME":"STARLINK-3245","FILE":"3367488","ECCENTRICITY":"0.00016300","TLE_LINE2":"2 50170  53.2176 277.4591 0001630  45.6127 342.5805 15.13539047  3647","APOAPSIS":"526.545","TLE_LINE1":"1 50170U 21125Q   22079.91668981 -.00666097  00000-0 -39235-1 0  9991","PERIAPSIS":"524.294","ARG_OF_PERICENTER":"45.6127","CLASSIFICATION_TYPE":"U","BSTAR":"-0.03923500000000","OBJECT_TYPE":"PAYLOAD","MEAN_MOTION":"15.13539047","NORAD_CAT_ID":"50170","MEAN_MOTION_DDOT":"0.0000000000000","SEMIMAJOR_AXIS":"6903.554","REF_FRAME":"TEME","MEAN_ELEMENT_THEORY":"SGP4","RA_OF_ASC_NODE":"277.4591","REV_AT_EPOCH":"364","COUNTRY_CODE":"US","GP_ID":"199268724","SITE":"AFWTR","TIME_SYSTEM":"UTC","LAUNCH_DATE":"2021-12-18","PERIOD":"95.141","EPOCH":"2022-03-20T22:00:01.999584","MEAN_MOTION_DOT":"-0.00666097","RCS_SIZE":"LARGE"},{"PERIOD":"95.170","RCS_SIZE":"LARGE","MEAN_MOTION_DOT":"-0.00663676","EPOCH":"2022-03-20T22:00:01.999584","SITE":"AFWTR","TIME_SYSTEM":"UTC","GP_ID":"199269476","LAUNCH_DATE":"2021-12-18","REV_AT_EPOCH":"364","REF_FRAME":"TEME","RA_OF_ASC_NODE":"277.4575","MEAN_ELEMENT_THEORY":"SGP4","COUNTRY_CODE":"US","SEMIMAJOR_AXIS":"6904.959","OBJECT_TYPE":"PAYLOAD","BSTAR":"-0.03959600000000","MEAN_MOTION_DDOT":"0.0000000000000","NORAD_CAT_ID":"50171","MEAN_MOTION":"15.13077341","ARG_OF_PERICENTER":"63.4685","APOAPSIS":"527.808","TLE_LINE1":"1 50171U 21125R   22079.91668981 -.00663676  00000-0 -39596-1 0  9992","PERIAPSIS":"525.839","CLASSIFICATION_TYPE":"U","DECAY_DATE":null,"OBJECT_NAME":"STARLINK-3286","MEAN_ANOMALY":"250.0190","INCLINATION":"53.2175","TLE_LINE2":"2 50171  53.2175 277.4575 0001426  63.4685 250.0190 15.13077341  3643","ECCENTRICITY":"0.00014260","FILE":"3367488","ELEMENT_SET_NO":"999","OBJECT_ID":"2021-125R","EPHEMERIS_TYPE":"0","CENTER_NAME":"EARTH"},{"TLE_LINE2":"2 50172  53.2175 277.4595 0002023  32.9331  32.4087 15.13769378  3644","FILE":"3367488","ECCENTRICITY":"0.00020230","DECAY_DATE":null,"OBJECT_NAME":"STARLINK-3287","MEAN_ANOMALY":"32.4087","INCLINATION":"53.2175","CENTER_NAME":"EARTH","ELEMENT_SET_NO":"999","OBJECT_ID":"2021-125S","EPHEMERIS_TYPE":"0","MEAN_MOTION_DDOT":"0.0000000000000","NORAD_CAT_ID":"50172","MEAN_MOTION":"15.13769378","OBJECT_TYPE":"PAYLOAD","BSTAR":"-0.03899700000000","CLASSIFICATION_TYPE":"U","ARG_OF_PERICENTER":"32.9331","APOAPSIS":"526.116","PERIAPSIS":"523.323","TLE_LINE1":"1 50172U 21125S   22079.91668981 -.00666397  00000-0 -38997-1 0  9990","COUNTRY_CODE":"US","REV_AT_EPOCH":"364","REF_FRAME":"TEME","MEAN_ELEMENT_THEORY":"SGP4","RA_OF_ASC_NODE":"277.4595","SEMIMAJOR_AXIS":"6902.854","RCS_SIZE":"LARGE","MEAN_MOTION_DOT":"-0.00666397","EPOCH":"2022-03-20T22:00:01.999584","PERIOD":"95.127","LAUNCH_DATE":"2021-12-18","SITE":"AFWTR","TIME_SYSTEM":"UTC","GP_ID":"199270226"},{"RCS_SIZE":"LARGE","EPOCH":"2022-03-20T22:00:01.999584","MEAN_MOTION_DOT":"-0.00305546","PERIOD":"93.331","LAUNCH_DATE":"2021-12-18","SITE":"AFWTR","TIME_SYSTEM":"UTC","GP_ID":"199268974","COUNTRY_CODE":"US","REV_AT_EPOCH":"367","RA_OF_ASC_NODE":"273.8271","MEAN_ELEMENT_THEORY":"SGP4","REF_FRAME":"TEME","SEMIMAJOR_AXIS":"6815.718","MEAN_MOTION_DDOT":"0.0000000000000","MEAN_MOTION":"15.42891198","NORAD_CAT_ID":"50173","OBJECT_TYPE":"PAYLOAD","BSTAR":"-0.00711020000000","CLASSIFICATION_TYPE":"U","ARG_OF_PERICENTER":"278.5385","TLE_LINE1":"1 50173U 21125T   22079.91668981 -.00305546  00000-0 -71102-2 0  9993","PERIAPSIS":"433.453","APOAPSIS":"441.714","TLE_LINE2":"2 50173  53.2174 273.8271 0006060 278.5385 249.3217 15.42891198  3672","ECCENTRICITY":"0.00060600","FILE":"3367488","OBJECT_NAME":"STARLINK-3289","DECAY_DATE":null,"MEAN_ANOMALY":"249.3217","INCLINATION":"53.2174","CENTER_NAME":"EARTH","ELEMENT_SET_NO":"999","OBJECT_ID":"2021-125T","EPHEMERIS_TYPE":"0"},{"SEMIMAJOR_AXIS":"6901.803","REF_FRAME":"TEME","MEAN_ELEMENT_THEORY":"SGP4","RA_OF_ASC_NODE":"277.4595","REV_AT_EPOCH":"365","COUNTRY_CODE":"US","GP_ID":"199269224","SITE":"AFWTR","TIME_SYSTEM":"UTC","LAUNCH_DATE":"2021-12-18","PERIOD":"95.105","MEAN_MOTION_DOT":"-0.00666675","EPOCH":"2022-03-20T22:00:01.999584","RCS_SIZE":"LARGE","OBJECT_ID":"2021-125U","EPHEMERIS_TYPE":"0","ELEMENT_SET_NO":"999","CENTER_NAME":"EARTH","MEAN_ANOMALY":"91.0819","INCLINATION":"53.2175","DECAY_DATE":null,"OBJECT_NAME":"STARLINK-3292","ECCENTRICITY":"0.00021390","FILE":"3367488","TLE_LINE2":"2 50174  53.2175 277.4595 0002139  29.7271  91.0819 15.14115117  3653","APOAPSIS":"525.145","PERIAPSIS":"522.192","TLE_LINE1":"1 50174U 21125U   22079.91668981 -.00666675  00000-0 -38634-1 0  9999","ARG_OF_PERICENTER":"29.7271","CLASSIFICATION_TYPE":"U","BSTAR":"-0.03863400000000","OBJECT_TYPE":"PAYLOAD","MEAN_MOTION":"15.14115117","NORAD_CAT_ID":"50174","MEAN_MOTION_DDOT":"0.0000000000000"},{"RCS_SIZE":"LARGE","MEAN_MOTION_DOT":"-0.00665449","EPOCH":"2022-03-20T22:00:01.999584","PERIOD":"95.149","LAUNCH_DATE":"2021-12-18","SITE":"AFWTR","TIME_SYSTEM":"UTC","GP_ID":"199245081","COUNTRY_CODE":"US","REV_AT_EPOCH":"1724","RA_OF_ASC_NODE":"277.4588","MEAN_ELEMENT_THEORY":"SGP4","REF_FRAME":"TEME","SEMIMAJOR_AXIS":"6903.905","MEAN_MOTION_DDOT":"0.0000000000000","MEAN_MOTION":"15.13423615","NORAD_CAT_ID":"50175","OBJECT_TYPE":"PAYLOAD","BSTAR":"-0.03932300000000","CLASSIFICATION_TYPE":"U","ARG_OF_PERICENTER":"54.2673","PERIAPSIS":"524.748","TLE_LINE1":"1 50175U 21125V   22079.91668981 -.00665449  00000-0 -39323-1 0  9994","APOAPSIS":"526.793","TLE_LINE2":"2 50175  53.2176 277.4588 0001481  54.2673 315.3005 15.13423615 17248","FILE":"3367448","ECCENTRICITY":"0.00014810","OBJECT_NAME":"STARLINK-3291","DECAY_DATE":null,"MEAN_ANOMALY":"315.3005","INCLINATION":"53.2176","CENTER_NAME":"EARTH","ELEMENT_SET_NO":"999","OBJECT_ID":"2021-125V","EPHEMERIS_TYPE":"0"},{"MEAN_MOTION_DDOT":"0.0000000000000","NORAD_CAT_ID":"50176","MEAN_MOTION":"15.13999350","OBJECT_TYPE":"PAYLOAD","BSTAR":"-0.03871100000000","CLASSIFICATION_TYPE":"U","ARG_OF_PERICENTER":"33.8695","APOAPSIS":"525.438","PERIAPSIS":"522.602","TLE_LINE1":"1 50176U 21125W   22079.91668981 -.00665864  00000-0 -38711-1 0  9996","TLE_LINE2":"2 50176  53.2175 277.4596 0002054  33.8695  68.4848 15.13999350  3645","FILE":"3367488","ECCENTRICITY":"0.00020540","DECAY_DATE":null,"OBJECT_NAME":"STARLINK-3293","MEAN_ANOMALY":"68.4848","INCLINATION":"53.2175","CENTER_NAME":"EARTH","ELEMENT_SET_NO":"999","EPHEMERIS_TYPE":"0","OBJECT_ID":"2021-125W","RCS_SIZE":"LARGE","EPOCH":"2022-03-20T22:00:01.999584","MEAN_MOTION_DOT":"-0.00665864","PERIOD":"95.112","LAUNCH_DATE":"2021-12-18","TIME_SYSTEM":"UTC","SITE":"AFWTR","GP_ID":"199269727","COUNTRY_CODE":"US","REV_AT_EPOCH":"364","REF_FRAME":"TEME","MEAN_ELEMENT_THEORY":"SGP4","RA_OF_ASC_NODE":"277.4596","SEMIMAJOR_AXIS":"6902.155"},{"SEMIMAJOR_AXIS":"6903.204","COUNTRY_CODE":"US","REV_AT_EPOCH":"1724","RA_OF_ASC_NODE":"277.4594","MEAN_ELEMENT_THEORY":"SGP4","REF_FRAME":"TEME","LAUNCH_DATE":"2021-12-18","TIME_SYSTEM":"UTC","SITE":"AFWTR","GP_ID":"199245060","RCS_SIZE":"LARGE","EPOCH":"2022-03-20T22:00:01.999584","MEAN_MOTION_DOT":"-0.00666261","PERIOD":"95.134","CENTER_NAME":"EARTH","ELEMENT_SET_NO":"999","EPHEMERIS_TYPE":"0","OBJECT_ID":"2021-125X","TLE_LINE2":"2 50177  53.2175 277.4594 0001779  39.4519   7.3326 15.13654224 17246","ECCENTRICITY":"0.00017790","FILE":"3367446","OBJECT_NAME":"STARLINK-3282","DECAY_DATE":null,"MEAN_ANOMALY":"7.3326","INCLINATION":"53.2175","CLASSIFICATION_TYPE":"U","ARG_OF_PERICENTER":"39.4519","TLE_LINE1":"1 50177U 21125X   22079.91668981 -.00666261  00000-0 -39117-1 0  9990","PERIAPSIS":"523.841","APOAPSIS":"526.297","MEAN_MOTION_DDOT":"0.0000000000000","NORAD_CAT_ID":"50177","MEAN_MOTION":"15.13654224","OBJECT_TYPE":"PAYLOAD","BSTAR":"-0.03911700000000"}];
